GALAXY 34 (G-34)        
1 54027U 22128B   26167.73063691  .00000000  00000+0  00000+0 0  9998
2 54027   0.0271   1.5825 0001547 103.0523 294.4009  1.00275753 13903
ANGOSAT 2               
1 54033U 22131A   26167.68938934  .00000133  00000+0  00000+0 0  9991
2 54033   0.0287  79.0820 0000694  34.5090  62.5419  1.00271566 13470
EUTELSAT HOTBIRD 13F    
1 54048U 22134A   26166.54669356  .00000089  00000+0  00000+0 0  9993
2 54048   0.0519 292.7335 0002244  60.0843 120.8350  1.00270937 13363
LDPE-2                  
1 54219U 22144A   26168.45767001  .00000121  00000+0  00000+0 0  9999
2 54219   5.6144  63.6516 0001820 103.2842 106.3014  1.00532319 11844
EUTELSAT HOTBIRD 13G    
1 54225U 22146A   26166.54669356  .00000089  00000+0  00000+0 0  9993
2 54225   0.0509 232.5107 0001705 316.5388 284.5981  1.00269766  7451
ZHONGXING-19            
1 54230U 22148A   26167.78844801 -.00000084  00000+0  00000+0 0  9994
2 54230   0.0186  29.1015 0002320  82.3702 240.6108  1.00271492 13379
GALAXY 31 (G-31)        
1 54243U 22153A   26168.31545564  .00000009  00000+0  00000+0 0  9994
2 54243   0.0133  48.6021 0001040  27.9435 181.5754  1.00271162  7135
GALAXY 32 (G-32)        
1 54244U 22153B   26165.95583885 -.00000197  00000+0  00000+0 0  9999
2 54244   0.0165 349.6788 0015287 254.3091 272.5395  1.00491998 13126
EUTELSAT 10B            
1 54259U 22157A   26167.75816641  .00000065  00000+0  00000+0 0  9991
2 54259   0.0651  98.2762 0001210  13.0838  76.5948  1.00266425 13021
GALAXY 35 (G-35)        
1 54741U 22170A   26168.12589090 -.00000166  00000+0  00000+0 0  9992
2 54741   0.0176  53.5182 0001862  33.3250 130.7427  1.00270063 12897
GALAXY 36 (G-36)        
1 54742U 22170B   26167.59581398 -.00000187  00000+0  00000+0 0  9999
2 54742   0.0179 256.2701 0002502 187.9042 306.1810  1.00270255 12761
METEOSAT-12 (MTG-I1)    
1 54743U 22170C   26167.82736456 -.00000011  00000+0  00000+0 0  9999
2 54743   0.7382  22.9365 0003158  71.4337 108.1588  1.00272521 12974
SHIJIAN-23 (SJ-23)      
1 55131U 23002A   26167.76985752 -.00000253  00000+0  00000+0 0  9992
2 55131   3.7169  78.3181 0003813 272.2533 339.9981  1.00087661 12509
APSTAR-6E               
1 55239U 23005A   26166.71330346 -.00000316  00000+0  00000+0 0  9991
2 55239   0.0372 251.5524 0001114 313.0083  90.2366  1.00268070 18679
USA 342                 
1 55263U 23008A   26166.33502449  .00000142  00000+0  00000+0 0  9990
2 55263   0.0090  64.0068 0000187 223.8693 120.1932  1.00270392 12493
LDPE-3A                 
1 55264U 23008B   26167.59243397  .00000038  00000+0  00000+0 0  9998
2 55264   2.3467  81.6702 0001089  64.6813 225.1648  0.99144694 11800
ELEKTRO-L 4             
1 55506U 23016A   26166.80585650 -.00000057  00000+0  00000+0 0  9992
2 55506   0.0734 164.8322 0000776   9.0006 186.1645  1.00270697 12329
AMAZONAS NEXUS          
1 55508U 23017A   26166.53213350 -.00000280  00000+0  00000+0 0  9998
2 55508   0.0383  35.9590 0004916  30.4729 327.9525  1.00267577  7022
ZHONGXING-26            
1 55686U 23023A   26167.78090797 -.00000356  00000+0  00000+0 0  9992
2 55686   0.0665  70.0780 0003266  19.8711 221.3541  1.00271639 12229
LUCH-5X (OLYMP-K 2)     
1 55841U 23031A   26167.41188228  .00000032  00000+0  00000+0 0  9991
2 55841   0.0272  60.8842 0000697 146.7793 267.2814  1.00272047 11930
GAOFEN-13 02            
1 55912U 23036A   26167.59966249 -.00000221  00000+0  00000+0 0  9992
2 55912   1.0203   1.0845 0004144 335.5239 292.4346  1.00270520 12089
SES-18                  
1 55970U 23038A   26168.32850956 -.00000105  00000+0  00000+0 0  9998
2 55970   0.0215 292.9811 0000160 318.0341  29.7261  1.00270440 12104
SES-19                  
1 55971U 23038B   26168.46893999  .00000083  00000+0  00000+0 0  9992
2 55971   0.0112  11.5687 0001413  70.2724 217.7972  1.00271589 12092
INTELSAT 40E (IS-40E)   
1 56174U 23052A   26168.16700140 -.00000178  00000+0  00000+0 0  9992
2 56174   0.0175  61.1054 0002014  66.2699 107.1649  1.00270529 11826
VIASAT-3 F1             
1 56370U 23060A   26167.66685590  .00000000  00000+0  00000+0 0  9997
2 56370   0.0244 342.0129 0001093  97.9977 336.0276  1.00270750 11422
ARCTURUS                
1 56371U 23060B   26167.95234862 -.00000068  00000+0  00000+0 0  9997
2 56371   2.7748  79.9563 0002559  49.6160 190.9835  1.00272378 11454
GS-1                    
1 56372U 23060C   26165.91571983 -.00000221  00000+0  00000+0 0  9991
2 56372   2.7203  79.8626 0003785 282.6047 319.7725  1.00275284  7515
BEIDOU-3 G4             
1 56564U 23066A   26168.23313315 -.00000285  00000+0  00000+0 0  9991
2 56564   0.4866 331.5139 0004321 181.0756 336.8582  1.00273644 11391
ARABSAT-7B (BADR-8)     
1 56757U 23075A   26166.19285493  .00000148  00000+0  00000+0 0  9990
2 56757   0.0785  30.3075 0004379 352.7494 335.8524  1.00270389 11098
NVS-01 (IRNSS-1J)       
1 56759U 23076A   26167.85312465 -.00000338  00000+0  00000+0 0  9999
2 56759   2.1664 244.3634 0003179  36.2189  61.1146  1.00264842 11118
NUSANTARA TIGA (SATRIA) 
1 57045U 23086A   26166.51989272 -.00000233  00000+0  00000+0 0  9991
2 57045   0.0355 352.3654 0003179 355.6095 248.9867  1.00267948  9748
